[{"OBJECT_NAME":"HULIANWANG DIGUI-97","OBJECT_ID":"2025-258B","EPOCH":"2026-03-05T02:46:24.994848","MEAN_MOTION":13.29332352,"ECCENTRICITY":4.14e-5,"INCLINATION":50.0018,"RA_OF_ASC_NODE":309.1537,"ARG_OF_PERICENTER":97.0884,"MEAN_ANOMALY":263.0035,"EPHEMERIS_TYPE":0,"CLASSIFICATION_TYPE":"U","NORAD_CAT_ID":66413,"ELEMENT_SET_NO":999,"REV_AT_EPOCH":1588,"BSTAR":0.00016973,"MEAN_MOTION_DOT":-4.5e-7,"MEAN_MOTION_DDOT":0},{"OBJECT_NAME":"HULIANWANG DIGUI-98","OBJECT_ID":"2025-258C","EPOCH":"2026-03-05T02:34:21.036288","MEAN_MOTION":13.29333953,"ECCENTRICITY":4.61e-5,"INCLINATION":50.0055,"RA_OF_ASC_NODE":309.1521,"ARG_OF_PERICENTER":109.2242,"MEAN_ANOMALY":250.868,"EPHEMERIS_TYPE":0,"CLASSIFICATION_TYPE":"U","NORAD_CAT_ID":66414,"ELEMENT_SET_NO":999,"REV_AT_EPOCH":1588,"BSTAR":0.00018093,"MEAN_MOTION_DOT":-4.0e-7,"MEAN_MOTION_DDOT":0},{"OBJECT_NAME":"HULIANWANG DIGUI-99","OBJECT_ID":"2025-258D","EPOCH":"2026-03-05T01:46:16.437504","MEAN_MOTION":13.29331446,"ECCENTRICITY":3.51e-5,"INCLINATION":50.0053,"RA_OF_ASC_NODE":308.9726,"ARG_OF_PERICENTER":90.4831,"MEAN_ANOMALY":269.6081,"EPHEMERIS_TYPE":0,"CLASSIFICATION_TYPE":"U","NORAD_CAT_ID":66415,"ELEMENT_SET_NO":999,"REV_AT_EPOCH":1587,"BSTAR":0.00014388,"MEAN_MOTION_DOT":-5.7e-7,"MEAN_MOTION_DDOT":0},{"OBJECT_NAME":"HULIANWANG DIGUI-100","OBJECT_ID":"2025-258E","EPOCH":"2026-03-05T02:22:19.754400","MEAN_MOTION":13.29334457,"ECCENTRICITY":3.3e-5,"INCLINATION":50.0056,"RA_OF_ASC_NODE":309.111,"ARG_OF_PERICENTER":87.3024,"MEAN_ANOMALY":272.7886,"EPHEMERIS_TYPE":0,"CLASSIFICATION_TYPE":"U","NORAD_CAT_ID":66416,"ELEMENT_SET_NO":999,"REV_AT_EPOCH":1589,"BSTAR":0.00016696,"MEAN_MOTION_DOT":-4.7e-7,"MEAN_MOTION_DDOT":0},{"OBJECT_NAME":"HULIANWANG DIGUI-101","OBJECT_ID":"2025-258F","EPOCH":"2026-03-05T02:10:19.149024","MEAN_MOTION":13.29332658,"ECCENTRICITY":3.63e-5,"INCLINATION":50.0006,"RA_OF_ASC_NODE":309.0091,"ARG_OF_PERICENTER":82.7571,"MEAN_ANOMALY":277.3343,"EPHEMERIS_TYPE":0,"CLASSIFICATION_TYPE":"U","NORAD_CAT_ID":66417,"ELEMENT_SET_NO":999,"REV_AT_EPOCH":1589,"BSTAR":0.00016323,"MEAN_MOTION_DOT":-4.8e-7,"MEAN_MOTION_DDOT":0},{"OBJECT_NAME":"HULIANWANG DIGUI-102","OBJECT_ID":"2025-258G","EPOCH":"2026-03-05T03:22:26.798880","MEAN_MOTION":13.29334547,"ECCENTRICITY":3.7e-5,"INCLINATION":50.002,"RA_OF_ASC_NODE":308.6198,"ARG_OF_PERICENTER":103.4545,"MEAN_ANOMALY":256.6369,"EPHEMERIS_TYPE":0,"CLASSIFICATION_TYPE":"U","NORAD_CAT_ID":66418,"ELEMENT_SET_NO":999,"REV_AT_EPOCH":1589,"BSTAR":0.00014677,"MEAN_MOTION_DOT":-5.6e-7,"MEAN_MOTION_DDOT":0},{"OBJECT_NAME":"HULIANWANG DIGUI-103","OBJECT_ID":"2025-258H","EPOCH":"2026-03-05T03:10:26.839776","MEAN_MOTION":13.29333562,"ECCENTRICITY":3.05e-5,"INCLINATION":50.0014,"RA_OF_ASC_NODE":308.5684,"ARG_OF_PERICENTER":84.3121,"MEAN_ANOMALY":275.7786,"EPHEMERIS_TYPE":0,"CLASSIFICATION_TYPE":"U","NORAD_CAT_ID":66419,"ELEMENT_SET_NO":999,"REV_AT_EPOCH":1589,"BSTAR":0.00016099,"MEAN_MOTION_DOT":-4.9e-7,"MEAN_MOTION_DDOT":0},{"OBJECT_NAME":"HULIANWANG DIGUI-104","OBJECT_ID":"2025-258J","EPOCH":"2026-03-05T02:58:26.364864","MEAN_MOTION":13.29332938,"ECCENTRICITY":3.94e-5,"INCLINATION":50.0031,"RA_OF_ASC_NODE":308.5475,"ARG_OF_PERICENTER":107.3201,"MEAN_ANOMALY":252.7714,"EPHEMERIS_TYPE":0,"CLASSIFICATION_TYPE":"U","NORAD_CAT_ID":66420,"ELEMENT_SET_NO":999,"REV_AT_EPOCH":1588,"BSTAR":0.00015664,"MEAN_MOTION_DOT":-5.1e-7,"MEAN_MOTION_DDOT":0},{"OBJECT_NAME":"HULIANWANG DIGUI-105","OBJECT_ID":"2025-285A","EPOCH":"2026-03-05T04:52:18.899328","MEAN_MOTION":13.29331633,"ECCENTRICITY":6.3e-6,"INCLINATION":50.0046,"RA_OF_ASC_NODE":159.155,"ARG_OF_PERICENTER":320.6764,"MEAN_ANOMALY":39.4103,"EPHEMERIS_TYPE":0,"CLASSIFICATION_TYPE":"U","NORAD_CAT_ID":66915,"ELEMENT_SET_NO":999,"REV_AT_EPOCH":1222,"BSTAR":7.7917e-5,"MEAN_MOTION_DOT":-8.8e-7,"MEAN_MOTION_DDOT":0},{"OBJECT_NAME":"HULIANWANG DIGUI-106","OBJECT_ID":"2025-285B","EPOCH":"2026-03-04T05:13:20.040384","MEAN_MOTION":13.29373542,"ECCENTRICITY":0.0006718,"INCLINATION":49.9908,"RA_OF_ASC_NODE":162.6187,"ARG_OF_PERICENTER":40.7121,"MEAN_ANOMALY":319.4252,"EPHEMERIS_TYPE":0,"CLASSIFICATION_TYPE":"U","NORAD_CAT_ID":66916,"ELEMENT_SET_NO":999,"REV_AT_EPOCH":1209,"BSTAR":-1.4013,"MEAN_MOTION_DOT":-0.00623778,"MEAN_MOTION_DDOT":0},{"OBJECT_NAME":"HULIANWANG DIGUI-107","OBJECT_ID":"2025-285C","EPOCH":"2026-03-04T21:15:13.949568","MEAN_MOTION":13.29331124,"ECCENTRICITY":4.8e-6,"INCLINATION":50.0022,"RA_OF_ASC_NODE":160.1289,"ARG_OF_PERICENTER":352.1456,"MEAN_ANOMALY":7.9415,"EPHEMERIS_TYPE":0,"CLASSIFICATION_TYPE":"U","NORAD_CAT_ID":66917,"ELEMENT_SET_NO":999,"REV_AT_EPOCH":1218,"BSTAR":4.0732e-5,"MEAN_MOTION_DOT":-1.05e-6,"MEAN_MOTION_DDOT":0},{"OBJECT_NAME":"HULIANWANG DIGUI-108","OBJECT_ID":"2025-285D","EPOCH":"2026-03-04T21:03:11.536704","MEAN_MOTION":13.29331601,"ECCENTRICITY":3.7e-6,"INCLINATION":50.0043,"RA_OF_ASC_NODE":160.1023,"ARG_OF_PERICENTER":32.2379,"MEAN_ANOMALY":327.8496,"EPHEMERIS_TYPE":0,"CLASSIFICATION_TYPE":"U","NORAD_CAT_ID":66918,"ELEMENT_SET_NO":999,"REV_AT_EPOCH":1218,"BSTAR":7.4937e-5,"MEAN_MOTION_DOT":-8.9e-7,"MEAN_MOTION_DDOT":0},{"OBJECT_NAME":"HULIANWANG DIGUI-109","OBJECT_ID":"2025-285E","EPOCH":"2026-03-05T04:04:11.833824","MEAN_MOTION":13.29331138,"ECCENTRICITY":5.8e-6,"INCLINATION":50.0065,"RA_OF_ASC_NODE":159,"ARG_OF_PERICENTER":351.9954,"MEAN_ANOMALY":8.0917,"EPHEMERIS_TYPE":0,"CLASSIFICATION_TYPE":"U","NORAD_CAT_ID":66919,"ELEMENT_SET_NO":999,"REV_AT_EPOCH":1223,"BSTAR":0.00010678,"MEAN_MOTION_DOT":-7.4e-7,"MEAN_MOTION_DDOT":0},{"OBJECT_NAME":"HULIANWANG DIGUI-110","OBJECT_ID":"2025-285F","EPOCH":"2026-03-05T02:03:55.048320","MEAN_MOTION":13.29330987,"ECCENTRICITY":2.4e-6,"INCLINATION":50.0099,"RA_OF_ASC_NODE":159.2523,"ARG_OF_PERICENTER":350.0537,"MEAN_ANOMALY":10.0335,"EPHEMERIS_TYPE":0,"CLASSIFICATION_TYPE":"U","NORAD_CAT_ID":66920,"ELEMENT_SET_NO":999,"REV_AT_EPOCH":1221,"BSTAR":5.6173e-5,"MEAN_MOTION_DOT":-9.8e-7,"MEAN_MOTION_DDOT":0},{"OBJECT_NAME":"HULIANWANG DIGUI-111","OBJECT_ID":"2025-285G","EPOCH":"2026-03-05T03:40:08.670432","MEAN_MOTION":13.29330976,"ECCENTRICITY":3.3e-6,"INCLINATION":50.0116,"RA_OF_ASC_NODE":158.9525,"ARG_OF_PERICENTER":319.5052,"MEAN_ANOMALY":40.5818,"EPHEMERIS_TYPE":0,"CLASSIFICATION_TYPE":"U","NORAD_CAT_ID":66921,"ELEMENT_SET_NO":999,"REV_AT_EPOCH":1222,"BSTAR":8.6837e-5,"MEAN_MOTION_DOT":-8.4e-7,"MEAN_MOTION_DDOT":0},{"OBJECT_NAME":"HULIANWANG DIGUI-112","OBJECT_ID":"2025-285H","EPOCH":"2026-03-05T03:28:07.049856","MEAN_MOTION":13.29331241,"ECCENTRICITY":9.9e-6,"INCLINATION":50.0077,"RA_OF_ASC_NODE":158.8814,"ARG_OF_PERICENTER":331.5496,"MEAN_ANOMALY":28.5371,"EPHEMERIS_TYPE":0,"CLASSIFICATION_TYPE":"U","NORAD_CAT_ID":66922,"ELEMENT_SET_NO":999,"REV_AT_EPOCH":1222,"BSTAR":0.00015335,"MEAN_MOTION_DOT":-5.3e-7,"MEAN_MOTION_DDOT":0}]
