HULIANWANG DIGUI-97     
1 66413U 25258B   26064.11556707 -.00000045  00000+0  16973-3 0  9990
2 66413  50.0018 309.1537 0000414  97.0884 263.0035 13.29332352 15883
HULIANWANG DIGUI-98     
1 66414U 25258C   26064.10718792 -.00000040  00000+0  18093-3 0  9994
2 66414  50.0055 309.1521 0000461 109.2242 250.8680 13.29333953 15882
HULIANWANG DIGUI-99     
1 66415U 25258D   26064.07380136 -.00000057  00000+0  14388-3 0  9999
2 66415  50.0053 308.9726 0000351  90.4831 269.6081 13.29331446 15875
HULIANWANG DIGUI-100    
1 66416U 25258E   26064.09883975 -.00000047  00000+0  16696-3 0  9994
2 66416  50.0056 309.1110 0000330  87.3024 272.7886 13.29334457 15890
HULIANWANG DIGUI-101    
1 66417U 25258F   26064.09049941 -.00000048  00000+0  16323-3 0  9990
2 66417  50.0006 309.0091 0000363  82.7571 277.3343 13.29332658 15895
HULIANWANG DIGUI-102    
1 66418U 25258G   26064.14058795 -.00000056  00000+0  14677-3 0  9993
2 66418  50.0020 308.6198 0000370 103.4545 256.6369 13.29334547 15892
HULIANWANG DIGUI-103    
1 66419U 25258H   26064.13225509 -.00000049  00000+0  16099-3 0  9994
2 66419  50.0014 308.5684 0000305  84.3121 275.7786 13.29333562 15891
HULIANWANG DIGUI-104    
1 66420U 25258J   26064.12391626 -.00000051  00000+0  15664-3 0  9999
2 66420  50.0031 308.5475 0000394 107.3201 252.7714 13.29332938 15884
HULIANWANG DIGUI-105    
1 66915U 25285A   26064.20299652 -.00000088  00000+0  77917-4 0  9993
2 66915  50.0046 159.1550 0000063 320.6764  39.4103 13.29331633 12228
HULIANWANG DIGUI-106    
1 66916U 25285B   26063.21759306 -.00623778  00000+0 -14013+1 0  9993
2 66916  49.9908 162.6187 0006718  40.7121 319.4252 13.29373542 12094
HULIANWANG DIGUI-107    
1 66917U 25285C   26063.88557812 -.00000105  00000+0  40732-4 0  9998
2 66917  50.0022 160.1289 0000048 352.1456   7.9415 13.29331124 12182
HULIANWANG DIGUI-108    
1 66918U 25285D   26063.87721686 -.00000089  00000+0  74937-4 0  9995
2 66918  50.0043 160.1023 0000037  32.2379 327.8496 13.29331601 12183
HULIANWANG DIGUI-109    
1 66919U 25285E   26064.16958141 -.00000074  00000+0  10678-3 0  9992
2 66919  50.0065 159.0000 0000058 351.9954   8.0917 13.29331138 12230
HULIANWANG DIGUI-110    
1 66920U 25285F   26064.08605380 -.00000098  00000+0  56173-4 0  9996
2 66920  50.0099 159.2523 0000024 350.0537  10.0335 13.29330987 12217
HULIANWANG DIGUI-111    
1 66921U 25285G   26064.15287813 -.00000084  00000+0  86837-4 0  9997
2 66921  50.0116 158.9525 0000033 319.5052  40.5818 13.29330976 12221
HULIANWANG DIGUI-112    
1 66922U 25285H   26064.14452604 -.00000053  00000+0  15335-3 0  9999
2 66922  50.0077 158.8814 0000099 331.5496  28.5371 13.29331241 12222
